{
  "type": "FeatureCollection",
  "features": [
    {
      "type": "Feature",
      "properties": {
        "norad_id": 39766,
        "name": "ALOS-2",
        "group": "resource",
        "lat": 82.05855248966483,
        "lon": -12.853226564380423,
        "alt_km": 622.5877950111972,
        "timestamp": "2025-12-04T23:34:05.387714+00:00",
        "meta_object_name": "ALOS-2",
        "meta_object_id": "2014-029A",
        "meta_epoch": "2025-12-04T18:17:43.183104",
        "meta_mean_motion": 14.79453512,
        "meta_eccentricity": 0.0001486,
        "meta_inclination": 97.9239,
        "meta_ra_of_asc_node": 73.7226,
        "meta_arg_of_pericenter": 108.6237,
        "meta_mean_anomaly": 251.5135,
        "meta_ephemeris_type": 0,
        "meta_classification_type": "U",
        "meta_norad_cat_id": 39766,
        "meta_element_set_no": 999,
        "meta_rev_at_epoch": 62283,
        "meta_bstar": 0.0006095,
        "meta_mean_motion_dot": 4.501e-05,
        "meta_mean_motion_ddot": 0,
        "tle_line1": "1 39766U 14029A   25338.76230536  .00004501  00000+0  60950-3 0  9992",
        "tle_line2": "2 39766  97.9239  73.7226 0001486 108.6237 251.5135 14.79453512622839"
      },
      "geometry": {
        "type": "Point",
        "coordinates": [
          -12.853226564380423,
          82.05855248966483
        ]
      }
    },
    {
      "type": "Feature",
      "properties": {
        "norad_id": 40010,
        "name": "KAZEOSAT 2",
        "group": "resource",
        "lat": -20.955915755643993,
        "lon": 0.784782887091653,
        "alt_km": 614.2368135614051,
        "timestamp": "2025-12-04T23:34:05.387724+00:00",
        "meta_object_name": "KAZEOSAT 2",
        "meta_object_id": "2014-033A",
        "meta_epoch": "2025-12-04T17:48:51.218208",
        "meta_mean_motion": 14.85147924,
        "meta_eccentricity": 0.0007291,
        "meta_inclination": 97.5511,
        "meta_ra_of_asc_node": 183.4695,
        "meta_arg_of_pericenter": 236.4741,
        "meta_mean_anomaly": 123.5779,
        "meta_ephemeris_type": 0,
        "meta_classification_type": "U",
        "meta_norad_cat_id": 40010,
        "meta_element_set_no": 999,
        "meta_rev_at_epoch": 62009,
        "meta_bstar": 0.0001767,
        "meta_mean_motion_dot": 1.463e-05,
        "meta_mean_motion_ddot": 0,
        "tle_line1": "1 40010U 14033A   25338.74225947  .00001463  00000+0  17670-3 0  9994",
        "tle_line2": "2 40010  97.5511 183.4695 0007291 236.4741 123.5779 14.85147924620093"
      },
      "geometry": {
        "type": "Point",
        "coordinates": [
          0.784782887091653,
          -20.955915755643993
        ]
      }
    },
    {
      "type": "Feature",
      "properties": {
        "norad_id": 40011,
        "name": "HODOYOSHI-4",
        "group": "resource",
        "lat": -44.24656387439797,
        "lon": -19.165668750174817,
        "alt_km": 596.8115830383304,
        "timestamp": "2025-12-04T23:34:05.387734+00:00",
        "meta_object_name": "HODOYOSHI-4",
        "meta_object_id": "2014-033B",
        "meta_epoch": "2025-12-04T19:19:52.665888",
        "meta_mean_motion": 14.87435715,
        "meta_eccentricity": 0.0022735,
        "meta_inclination": 97.5412,
        "meta_ra_of_asc_node": 168.0804,
        "meta_arg_of_pericenter": 227.7522,
        "meta_mean_anomaly": 132.1767,
        "meta_ephemeris_type": 0,
        "meta_classification_type": "U",
        "meta_norad_cat_id": 40011,
        "meta_element_set_no": 999,
        "meta_rev_at_epoch": 61990,
        "meta_bstar": 0.00046292,
        "meta_mean_motion_dot": 4.158e-05,
        "meta_mean_motion_ddot": 0,
        "tle_line1": "1 40011U 14033B   25338.80547067  .00004158  00000+0  46292-3 0  9998",
        "tle_line2": "2 40011  97.5412 168.0804 0022735 227.7522 132.1767 14.87435715619906"
      },
      "geometry": {
        "type": "Point",
        "coordinates": [
          -19.165668750174817,
          -44.24656387439797
        ]
      }
    },
    {
      "type": "Feature",
      "properties": {
        "norad_id": 40013,
        "name": "DEIMOS-2",
        "group": "resource",
        "lat": -48.32935652727559,
        "lon": 26.401422248370114,
        "alt_km": 596.1839794519719,
        "timestamp": "2025-12-04T23:34:05.387749+00:00",
        "meta_object_name": "DEIMOS-2",
        "meta_object_id": "2014-033D",
        "meta_epoch": "2025-12-04T19:19:45.041952",
        "meta_mean_motion": 14.9291659,
        "meta_eccentricity": 9.09e-05,
        "meta_inclination": 97.6071,
        "meta_ra_of_asc_node": 214.8666,
        "meta_arg_of_pericenter": 92.0865,
        "meta_mean_anomaly": 268.0458,
        "meta_ephemeris_type": 0,
        "meta_classification_type": "U",
        "meta_norad_cat_id": 40013,
        "meta_element_set_no": 999,
        "meta_rev_at_epoch": 60871,
        "meta_bstar": 0.00052195,
        "meta_mean_motion_dot": 5.361e-05,
        "meta_mean_motion_ddot": 0,
        "tle_line1": "1 40013U 14033D   25338.80538243  .00005361  00000+0  52195-3 0  9992",
        "tle_line2": "2 40013  97.6071 214.8666 0000909  92.0865 268.0458 14.92916590608712"
      },
      "geometry": {
        "type": "Point",
        "coordinates": [
          26.401422248370114,
          -48.32935652727559
        ]
      }
    },
    {
      "type": "Feature",
      "properties": {
        "norad_id": 40015,
        "name": "HODOYOSHI-3",
        "group": "resource",
        "lat": -43.88633094437431,
        "lon": -42.243414602579236,
        "alt_km": 606.7712300407466,
        "timestamp": "2025-12-04T23:34:05.387759+00:00",
        "meta_object_name": "HODOYOSHI-3",
        "meta_object_id": "2014-033F",
        "meta_epoch": "2025-12-04T11:14:10.478112",
        "meta_mean_motion": 14.84762623,
        "meta_eccentricity": 0.0031829,
        "meta_inclination": 97.6193,
        "meta_ra_of_asc_node": 144.6631,
        "meta_arg_of_pericenter": 276.2794,
        "meta_mean_anomaly": 83.4796,
        "meta_ephemeris_type": 0,
        "meta_classification_type": "U",
        "meta_norad_cat_id": 40015,
        "meta_element_set_no": 999,
        "meta_rev_at_epoch": 61872,
        "meta_bstar": 0.00045866,
        "meta_mean_motion_dot": 3.872e-05,
        "meta_mean_motion_ddot": 0,
        "tle_line1": "1 40015U 14033F   25338.46817683  .00003872  00000+0  45866-3 0  9996",
        "tle_line2": "2 40015  97.6193 144.6631 0031829 276.2794  83.4796 14.84762623618726"
      },
      "geometry": {
        "type": "Point",
        "coordinates": [
          -42.243414602579236,
          -43.88633094437431
        ]
      }
    },
    {
      "type": "Feature",
      "properties": {
        "norad_id": 40053,
        "name": "SPOT 7",
        "group": "resource",
        "lat": -75.56801559824822,
        "lon": -172.32422998730542,
        "alt_km": 699.2033989312522,
        "timestamp": "2025-12-04T23:34:05.387769+00:00",
        "meta_object_name": "SPOT 7",
        "meta_object_id": "2014-034A",
        "meta_epoch": "2025-12-04T17:27:31.171104",
        "meta_mean_motion": 14.60718291,
        "meta_eccentricity": 0.0001525,
        "meta_inclination": 98.0917,
        "meta_ra_of_asc_node": 40.9873,
        "meta_arg_of_pericenter": 96.2209,
        "meta_mean_anomaly": 263.9166,
        "meta_ephemeris_type": 0,
        "meta_classification_type": "U",
        "meta_norad_cat_id": 40053,
        "meta_element_set_no": 999,
        "meta_rev_at_epoch": 60874,
        "meta_bstar": 0.0002482,
        "meta_mean_motion_dot": 1.164e-05,
        "meta_mean_motion_ddot": 0,
        "tle_line1": "1 40053U 14034A   25338.72744411  .00001164  00000+0  24820-3 0  9995",
        "tle_line2": "2 40053  98.0917  40.9873 0001525  96.2209 263.9166 14.60718291608747"
      },
      "geometry": {
        "type": "Point",
        "coordinates": [
          -172.32422998730542,
          -75.56801559824822
        ]
      }
    },
    {
      "type": "Feature",
      "properties": {
        "norad_id": 40072,
        "name": "SKYSAT-B",
        "group": "resource",
        "lat": 8.250671784505666,
        "lon": 103.50081037771662,
        "alt_km": 604.4787231861419,
        "timestamp": "2025-12-04T23:34:05.387779+00:00",
        "meta_object_name": "SKYSAT-B",
        "meta_object_id": "2014-037D",
        "meta_epoch": "2025-12-04T16:20:26.489760",
        "meta_mean_motion": 14.87280526,
        "meta_eccentricity": 0.0005486,
        "meta_inclination": 98.3596,
        "meta_ra_of_asc_node": 281.9621,
        "meta_arg_of_pericenter": 174.8028,
        "meta_mean_anomaly": 185.3245,
        "meta_ephemeris_type": 0,
        "meta_classification_type": "U",
        "meta_norad_cat_id": 40072,
        "meta_element_set_no": 999,
        "meta_rev_at_epoch": 61704,
        "meta_bstar": 0.00042981,
        "meta_mean_motion_dot": 3.817e-05,
        "meta_mean_motion_ddot": 0,
        "tle_line1": "1 40072U 14037D   25338.68086215  .00003817  00000+0  42981-3 0  9990",
        "tle_line2": "2 40072  98.3596 281.9621 0005486 174.8028 185.3245 14.87280526617046"
      },
      "geometry": {
        "type": "Point",
        "coordinates": [
          103.50081037771662,
          8.250671784505666
        ]
      }
    }
  ]
}